{
  "type": "FeatureCollection",
  "features": [
    {
      "type": "Feature",
      "properties": {
        "norad_id": 34340,
        "name": "COSMOS 2251 DEB",
        "group": "cosmos-2251-debris",
        "lat": -48.25276499802955,
        "lon": -60.207469297669576,
        "alt_km": 1066.5586098062995,
        "timestamp": "2025-12-06T11:28:11.456284+00:00",
        "meta_object_name": "COSMOS 2251 DEB",
        "meta_object_id": "1993-036PN",
        "meta_epoch": "2025-12-05T23:47:35.504160",
        "meta_mean_motion": 13.79536118,
        "meta_eccentricity": 0.02819493,
        "meta_inclination": 74.0788,
        "meta_ra_of_asc_node": 319.2575,
        "meta_arg_of_pericenter": 68.7157,
        "meta_mean_anomaly": 348.0086,
        "meta_ephemeris_type": 0,
        "meta_classification_type": "U",
        "meta_norad_cat_id": 34340,
        "meta_element_set_no": 999,
        "meta_rev_at_epoch": 84175,
        "meta_bstar": 0.0015592328,
        "meta_mean_motion_dot": 2.144e-05,
        "meta_mean_motion_ddot": 0,
        "tle_line1": "1 34340U 93036PN  25339.99138315  .00002144  00000+0  15592-2 0  9990",
        "tle_line2": "2 34340  74.0788 319.2575 0281949  68.7157 348.0086 13.79536118841757"
      },
      "geometry": {
        "type": "Point",
        "coordinates": [
          -60.207469297669576,
          -48.25276499802955
        ]
      }
    },
    {
      "type": "Feature",
      "properties": {
        "norad_id": 34343,
        "name": "COSMOS 2251 DEB",
        "group": "cosmos-2251-debris",
        "lat": 16.49532464184949,
        "lon": -83.17304686869713,
        "alt_km": 676.6218036541195,
        "timestamp": "2025-12-06T11:28:11.456295+00:00",
        "meta_object_name": "COSMOS 2251 DEB",
        "meta_object_id": "1993-036PR",
        "meta_epoch": "2025-12-05T18:55:02.589888",
        "meta_mean_motion": 14.69247602,
        "meta_eccentricity": 0.00227501,
        "meta_inclination": 74.0202,
        "meta_ra_of_asc_node": 103.031,
        "meta_arg_of_pericenter": 20.2094,
        "meta_mean_anomaly": 95.8809,
        "meta_ephemeris_type": 0,
        "meta_classification_type": "U",
        "meta_norad_cat_id": 34343,
        "meta_element_set_no": 999,
        "meta_rev_at_epoch": 88628,
        "meta_bstar": 0.0028947531,
        "meta_mean_motion_dot": 0.00017146,
        "meta_mean_motion_ddot": 0,
        "tle_line1": "1 34343U 93036PR  25339.78822442  .00017146  00000+0  28948-2 0  9998",
        "tle_line2": "2 34343  74.0202 103.0310 0022750  20.2094  95.8809 14.69247602886287"
      },
      "geometry": {
        "type": "Point",
        "coordinates": [
          -83.17304686869713,
          16.49532464184949
        ]
      }
    },
    {
      "type": "Feature",
      "properties": {
        "norad_id": 34344,
        "name": "COSMOS 2251 DEB",
        "group": "cosmos-2251-debris",
        "lat": 17.62216255452729,
        "lon": 126.76337266447258,
        "alt_km": 800.7342868775222,
        "timestamp": "2025-12-06T11:28:11.456305+00:00",
        "meta_object_name": "COSMOS 2251 DEB",
        "meta_object_id": "1993-036PS",
        "meta_epoch": "2025-12-05T11:56:44.170944",
        "meta_mean_motion": 14.16331086,
        "meta_eccentricity": 0.01553422,
        "meta_inclination": 73.9776,
        "meta_ra_of_asc_node": 123.2752,
        "meta_arg_of_pericenter": 308.8907,
        "meta_mean_anomaly": 112.1202,
        "meta_ephemeris_type": 0,
        "meta_classification_type": "U",
        "meta_norad_cat_id": 34344,
        "meta_element_set_no": 999,
        "meta_rev_at_epoch": 85994,
        "meta_bstar": 0.0025753986,
        "meta_mean_motion_dot": 5.727e-05,
        "meta_mean_motion_ddot": 0,
        "tle_line1": "1 34344U 93036PS  25339.49773346  .00005727  00000+0  25754-2 0  9999",
        "tle_line2": "2 34344  73.9776 123.2752 0155342 308.8907 112.1202 14.16331086859943"
      },
      "geometry": {
        "type": "Point",
        "coordinates": [
          126.76337266447258,
          17.62216255452729
        ]
      }
    },
    {
      "type": "Feature",
      "properties": {
        "norad_id": 34346,
        "name": "COSMOS 2251 DEB",
        "group": "cosmos-2251-debris",
        "lat": 33.15689972344274,
        "lon": 132.3042358280795,
        "alt_km": 742.345354951678,
        "timestamp": "2025-12-06T11:28:11.456315+00:00",
        "meta_object_name": "COSMOS 2251 DEB",
        "meta_object_id": "1993-036PU",
        "meta_epoch": "2025-12-05T22:55:30.067968",
        "meta_mean_motion": 13.99662318,
        "meta_eccentricity": 0.02065431,
        "meta_inclination": 73.9949,
        "meta_ra_of_asc_node": 324.0185,
        "meta_arg_of_pericenter": 144.5586,
        "meta_mean_anomaly": 247.8422,
        "meta_ephemeris_type": 0,
        "meta_classification_type": "U",
        "meta_norad_cat_id": 34346,
        "meta_element_set_no": 999,
        "meta_rev_at_epoch": 85315,
        "meta_bstar": 0.0013913187,
        "meta_mean_motion_dot": 2.423e-05,
        "meta_mean_motion_ddot": 0,
        "tle_line1": "1 34346U 93036PU  25339.95520912  .00002423  00000+0  13913-2 0  9995",
        "tle_line2": "2 34346  73.9949 324.0185 0206543 144.5586 247.8422 13.99662318853158"
      },
      "geometry": {
        "type": "Point",
        "coordinates": [
          132.3042358280795,
          33.15689972344274
        ]
      }
    },
    {
      "type": "Feature",
      "properties": {
        "norad_id": 34383,
        "name": "COSMOS 2251 DEB",
        "group": "cosmos-2251-debris",
        "lat": 48.11142688484972,
        "lon": -30.76018622800404,
        "alt_km": 535.4630192868044,
        "timestamp": "2025-12-06T11:28:11.456325+00:00",
        "meta_object_name": "COSMOS 2251 DEB",
        "meta_object_id": "1993-036PY",
        "meta_epoch": "2025-12-05T22:47:16.686816",
        "meta_mean_motion": 15.08015325,
        "meta_eccentricity": 0.00029572,
        "meta_inclination": 74.0216,
        "meta_ra_of_asc_node": 311.6964,
        "meta_arg_of_pericenter": 31.6316,
        "meta_mean_anomaly": 31.6595,
        "meta_ephemeris_type": 0,
        "meta_classification_type": "U",
        "meta_norad_cat_id": 34383,
        "meta_element_set_no": 999,
        "meta_rev_at_epoch": 89011,
        "meta_bstar": 0.0049575625,
        "meta_mean_motion_dot": 0.0007713,
        "meta_mean_motion_ddot": 0,
        "tle_line1": "1 34383U 93036PY  25339.94949869  .00077130  00000+0  49576-2 0  9992",
        "tle_line2": "2 34383  74.0216 311.6964 0002957  31.6316  31.6595 15.08015325890114"
      },
      "geometry": {
        "type": "Point",
        "coordinates": [
          -30.76018622800404,
          48.11142688484972
        ]
      }
    },
    {
      "type": "Feature",
      "properties": {
        "norad_id": 34387,
        "name": "COSMOS 2251 DEB",
        "group": "cosmos-2251-debris",
        "lat": 5.20133187567947,
        "lon": -134.97355055593462,
        "alt_km": 728.0595882431826,
        "timestamp": "2025-12-06T11:28:11.456406+00:00",
        "meta_object_name": "COSMOS 2251 DEB",
        "meta_object_id": "1993-036QC",
        "meta_epoch": "2025-12-05T19:08:03.719328",
        "meta_mean_motion": 14.43797491,
        "meta_eccentricity": 0.00386167,
        "meta_inclination": 74.0403,
        "meta_ra_of_asc_node": 224.7983,
        "meta_arg_of_pericenter": 322.9125,
        "meta_mean_anomaly": 105.9666,
        "meta_ephemeris_type": 0,
        "meta_classification_type": "U",
        "meta_norad_cat_id": 34387,
        "meta_element_set_no": 999,
        "meta_rev_at_epoch": 88081,
        "meta_bstar": 0.00053969087,
        "meta_mean_motion_dot": 1.827e-05,
        "meta_mean_motion_ddot": 0,
        "tle_line1": "1 34387U 93036QC  25339.79726527  .00001827  00000+0  53969-3 0  9995",
        "tle_line2": "2 34387  74.0403 224.7983 0038616 322.9125 105.9666 14.43797491880815"
      },
      "geometry": {
        "type": "Point",
        "coordinates": [
          -134.97355055593462,
          5.20133187567947
        ]
      }
    },
    {
      "type": "Feature",
      "properties": {
        "norad_id": 34388,
        "name": "COSMOS 2251 DEB",
        "group": "cosmos-2251-debris",
        "lat": -41.13123371622123,
        "lon": 69.32150275294791,
        "alt_km": 729.0380037224795,
        "timestamp": "2025-12-06T11:28:11.456419+00:00",
        "meta_object_name": "COSMOS 2251 DEB",
        "meta_object_id": "1993-036QD",
        "meta_epoch": "2025-12-05T19:52:51.877344",
        "meta_mean_motion": 14.49310059,
        "meta_eccentricity": 0.00142493,
        "meta_inclination": 74.0399,
        "meta_ra_of_asc_node": 236.066,
        "meta_arg_of_pericenter": 284.6047,
        "meta_mean_anomaly": 151.0455,
        "meta_ephemeris_type": 0,
        "meta_classification_type": "U",
        "meta_norad_cat_id": 34388,
        "meta_element_set_no": 999,
        "meta_rev_at_epoch": 88055,
        "meta_bstar": 0.00146954,
        "meta_mean_motion_dot": 5.594e-05,
        "meta_mean_motion_ddot": 0,
        "tle_line1": "1 34388U 93036QD  25339.82837821  .00005594  00000+0  14695-2 0  9997",
        "tle_line2": "2 34388  74.0399 236.0660 0014249 284.6047 151.0455 14.49310059880557"
      },
      "geometry": {
        "type": "Point",
        "coordinates": [
          69.32150275294791,
          -41.13123371622123
        ]
      }
    }
  ]
}